[{"OBJECT_NAME":"STARLINK-5866","OBJECT_ID":"2023-094R","EPOCH":"2026-03-09T22:00:01.999584","MEAN_MOTION":15.13650488,"ECCENTRICITY":0.00017672,"INCLINATION":43.0008,"RA_OF_ASC_NODE":28.3845,"ARG_OF_PERICENTER":256.8275,"MEAN_ANOMALY":60.3723,"EPHEMERIS_TYPE":0,"CLASSIFICATION_TYPE":"U","NORAD_CAT_ID":57233,"ELEMENT_SET_NO":999,"REV_AT_EPOCH":577,"BSTAR":0.0044796567,"MEAN_MOTION_DOT":0.00082702,"MEAN_MOTION_DDOT":0},{"OBJECT_NAME":"ELECTRON KICK STAGE R\/B","OBJECT_ID":"2020-037F","EPOCH":"2026-03-09T12:31:51.369312","MEAN_MOTION":15.17920372,"ECCENTRICITY":0.00076355,"INCLINATION":97.7675,"RA_OF_ASC_NODE":269.629,"ARG_OF_PERICENTER":117.3214,"MEAN_ANOMALY":242.8797,"EPHEMERIS_TYPE":0,"CLASSIFICATION_TYPE":"U","NORAD_CAT_ID":45728,"ELEMENT_SET_NO":999,"REV_AT_EPOCH":10307,"BSTAR":0.00051900437,"MEAN_MOTION_DOT":0.00010471,"MEAN_MOTION_DDOT":0}]
